{
  "type": "FeatureCollection",
  "features": [
    {
      "type": "Feature",
      "properties": {
        "norad_id": 66364,
        "name": "STARLINK-35797",
        "group": "last-30-days",
        "lat": 18.876842503582882,
        "lon": 125.63718105196642,
        "alt_km": 377.7878337855527,
        "timestamp": "2025-12-03T13:52:08.344401+00:00",
        "meta_object_name": "STARLINK-35797",
        "meta_object_id": "2025-254S",
        "meta_epoch": "2025-12-03T08:00:01.999872",
        "meta_mean_motion": 15.63787372,
        "meta_eccentricity": 0.00013654,
        "meta_inclination": 53.1599,
        "meta_ra_of_asc_node": 321.685,
        "meta_arg_of_pericenter": 88.0739,
        "meta_mean_anomaly": 131.1163,
        "meta_ephemeris_type": 0,
        "meta_classification_type": "U",
        "meta_norad_cat_id": 66364,
        "meta_element_set_no": 999,
        "meta_rev_at_epoch": 541,
        "meta_bstar": -0.023997416,
        "meta_mean_motion_dot": -0.02011056,
        "meta_mean_motion_ddot": 0,
        "tle_line1": "1 66364U 25254S   25337.33335648 -.02011056  00000+0 -23997-1 0  9995",
        "tle_line2": "2 66364  53.1599 321.6850 0001365  88.0739 131.1163 15.63787372  5419"
      },
      "geometry": {
        "type": "Point",
        "coordinates": [
          125.63718105196642,
          18.876842503582882
        ]
      }
    },
    {
      "type": "Feature",
      "properties": {
        "norad_id": 66365,
        "name": "STARLINK-35827",
        "group": "last-30-days",
        "lat": 15.893845542157301,
        "lon": 128.15734146191397,
        "alt_km": 378.3241755996514,
        "timestamp": "2025-12-03T13:52:08.344414+00:00",
        "meta_object_name": "STARLINK-35827",
        "meta_object_id": "2025-254T",
        "meta_epoch": "2025-12-03T08:00:01.999872",
        "meta_mean_motion": 15.63790656,
        "meta_eccentricity": 0.00013776,
        "meta_inclination": 53.1597,
        "meta_ra_of_asc_node": 321.6779,
        "meta_arg_of_pericenter": 86.9991,
        "meta_mean_anomaly": 136.0211,
        "meta_ephemeris_type": 0,
        "meta_classification_type": "U",
        "meta_norad_cat_id": 66365,
        "meta_element_set_no": 999,
        "meta_rev_at_epoch": 538,
        "meta_bstar": -0.024027805,
        "meta_mean_motion_dot": -0.02013529,
        "meta_mean_motion_ddot": 0,
        "tle_line1": "1 66365U 25254T   25337.33335648 -.02013529  00000+0 -24028-1 0  9999",
        "tle_line2": "2 66365  53.1597 321.6779 0001377  86.9991 136.0211 15.63790656  5381"
      },
      "geometry": {
        "type": "Point",
        "coordinates": [
          128.15734146191397,
          15.893845542157301
        ]
      }
    },
    {
      "type": "Feature",
      "properties": {
        "norad_id": 66366,
        "name": "STARLINK-35845",
        "group": "last-30-days",
        "lat": 17.30975421741884,
        "lon": 126.9746169815437,
        "alt_km": 378.75283560491516,
        "timestamp": "2025-12-03T13:52:08.344424+00:00",
        "meta_object_name": "STARLINK-35845",
        "meta_object_id": "2025-254U",
        "meta_epoch": "2025-12-03T08:00:01.999872",
        "meta_mean_motion": 15.63765719,
        "meta_eccentricity": 0.00014668,
        "meta_inclination": 53.1601,
        "meta_ra_of_asc_node": 321.6809,
        "meta_arg_of_pericenter": 58.4006,
        "meta_mean_anomaly": 162.8533,
        "meta_ephemeris_type": 0,
        "meta_classification_type": "U",
        "meta_norad_cat_id": 66366,
        "meta_element_set_no": 999,
        "meta_rev_at_epoch": 541,
        "meta_bstar": -0.025447324,
        "meta_mean_motion_dot": -0.0211521,
        "meta_mean_motion_ddot": 0,
        "tle_line1": "1 66366U 25254U   25337.33335648 -.02115210  00000+0 -25447-1 0  9996",
        "tle_line2": "2 66366  53.1601 321.6809 0001466  58.4006 162.8533 15.63765719  5412"
      },
      "geometry": {
        "type": "Point",
        "coordinates": [
          126.9746169815437,
          17.30975421741884
        ]
      }
    },
    {
      "type": "Feature",
      "properties": {
        "norad_id": 66367,
        "name": "STARLINK-35846",
        "group": "last-30-days",
        "lat": 14.390108833898019,
        "lon": 129.38778240253163,
        "alt_km": 378.56779992079646,
        "timestamp": "2025-12-03T13:52:08.344434+00:00",
        "meta_object_name": "STARLINK-35846",
        "meta_object_id": "2025-254V",
        "meta_epoch": "2025-12-03T08:00:01.999872",
        "meta_mean_motion": 15.63789818,
        "meta_eccentricity": 0.00014323,
        "meta_inclination": 53.1596,
        "meta_ra_of_asc_node": 321.6726,
        "meta_arg_of_pericenter": 87.7395,
        "meta_mean_anomaly": 137.1986,
        "meta_ephemeris_type": 0,
        "meta_classification_type": "U",
        "meta_norad_cat_id": 66367,
        "meta_element_set_no": 999,
        "meta_rev_at_epoch": 536,
        "meta_bstar": -0.024021917,
        "meta_mean_motion_dot": -0.0201308,
        "meta_mean_motion_ddot": 0,
        "tle_line1": "1 66367U 25254V   25337.33335648 -.02013080  00000+0 -24022-1 0  9997",
        "tle_line2": "2 66367  53.1596 321.6726 0001432  87.7395 137.1986 15.63789818  5360"
      },
      "geometry": {
        "type": "Point",
        "coordinates": [
          129.38778240253163,
          14.390108833898019
        ]
      }
    },
    {
      "type": "Feature",
      "properties": {
        "norad_id": 66368,
        "name": "STARLINK-34861",
        "group": "last-30-days",
        "lat": -31.006392472285928,
        "lon": 167.142709956892,
        "alt_km": 350.8095544246735,
        "timestamp": "2025-12-03T13:52:08.344447+00:00",
        "meta_object_name": "STARLINK-34861",
        "meta_object_id": "2025-254W",
        "meta_epoch": "2025-12-03T06:50:38.898816",
        "meta_mean_motion": 15.74252376,
        "meta_eccentricity": 0.00015333,
        "meta_inclination": 53.1571,
        "meta_ra_of_asc_node": 321.8109,
        "meta_arg_of_pericenter": 98.402,
        "meta_mean_anomaly": 261.7174,
        "meta_ephemeris_type": 0,
        "meta_classification_type": "U",
        "meta_norad_cat_id": 66368,
        "meta_element_set_no": 999,
        "meta_rev_at_epoch": 419,
        "meta_bstar": 0.0014834231,
        "meta_mean_motion_dot": 0.00223081,
        "meta_mean_motion_ddot": 0,
        "tle_line1": "1 66368U 25254W   25337.28517244  .00223081  00000+0  14834-2 0  9997",
        "tle_line2": "2 66368  53.1571 321.8109 0001533  98.4020 261.7174 15.74252376  4196"
      },
      "geometry": {
        "type": "Point",
        "coordinates": [
          167.142709956892,
          -31.006392472285928
        ]
      }
    },
    {
      "type": "Feature",
      "properties": {
        "norad_id": 66369,
        "name": "STARLINK-35795",
        "group": "last-30-days",
        "lat": -29.661616696745142,
        "lon": 165.63971774515443,
        "alt_km": 350.5149606929481,
        "timestamp": "2025-12-03T13:52:08.344458+00:00",
        "meta_object_name": "STARLINK-35795",
        "meta_object_id": "2025-254X",
        "meta_epoch": "2025-12-03T06:51:08.116704",
        "meta_mean_motion": 15.74275653,
        "meta_eccentricity": 0.00016685,
        "meta_inclination": 53.1571,
        "meta_ra_of_asc_node": 321.8129,
        "meta_arg_of_pericenter": 101.9216,
        "meta_mean_anomaly": 258.1991,
        "meta_ephemeris_type": 0,
        "meta_classification_type": "U",
        "meta_norad_cat_id": 66369,
        "meta_element_set_no": 999,
        "meta_rev_at_epoch": 419,
        "meta_bstar": 0.0018612851,
        "meta_mean_motion_dot": 0.00282348,
        "meta_mean_motion_ddot": 0,
        "tle_line1": "1 66369U 25254X   25337.28551061  .00282348  00000+0  18613-2 0  9993",
        "tle_line2": "2 66369  53.1571 321.8129 0001668 101.9216 258.1991 15.74275653  4195"
      },
      "geometry": {
        "type": "Point",
        "coordinates": [
          165.63971774515443,
          -29.661616696745142
        ]
      }
    },
    {
      "type": "Feature",
      "properties": {
        "norad_id": 66370,
        "name": "STARLINK-35824",
        "group": "last-30-days",
        "lat": -32.39343029303377,
        "lon": 168.76062848414813,
        "alt_km": 350.6017900029756,
        "timestamp": "2025-12-03T13:52:08.344468+00:00",
        "meta_object_name": "STARLINK-35824",
        "meta_object_id": "2025-254Y",
        "meta_epoch": "2025-12-03T05:18:44.173440",
        "meta_mean_motion": 15.74249015,
        "meta_eccentricity": 0.00013323,
        "meta_inclination": 53.1574,
        "meta_ra_of_asc_node": 322.1247,
        "meta_arg_of_pericenter": 113.3135,
        "meta_mean_anomaly": 246.8026,
        "meta_ephemeris_type": 0,
        "meta_classification_type": "U",
        "meta_norad_cat_id": 66370,
        "meta_element_set_no": 999,
        "meta_rev_at_epoch": 418,
        "meta_bstar": 0.0013568804,
        "meta_mean_motion_dot": 0.00203488,
        "meta_mean_motion_ddot": 0,
        "tle_line1": "1 66370U 25254Y   25337.22134460  .00203488  00000+0  13569-2 0  9992",
        "tle_line2": "2 66370  53.1574 322.1247 0001332 113.3135 246.8026 15.74249015  4185"
      },
      "geometry": {
        "type": "Point",
        "coordinates": [
          168.76062848414813,
          -32.39343029303377
        ]
      }
    }
  ]
}